LUCH 5V (SDCM/PRN 141)  
1 39727U 14023A   26115.87664272 -.00000279  00000+0  00000+0 0  9992
2 39727   5.0067  70.2558 0002183 337.6189 216.3664  1.00272089 43831
GPS BIIF-6  (PRN 06)    
1 39741U 14026A   26115.61032538 -.00000077  00000+0  00000+0 0  9993
2 39741  56.5223 333.5646 0038956 326.6637  33.1281  2.00564849 87486
COSMOS 2500 (755)       
1 40001U 14032A   26115.48233928 -.00000024  00000+0  00000+0 0  9994
2 40001  65.2631 315.4790 0005691 182.2475 177.7777  2.13105809 92338
GPS BIIF-7  (PRN 09)    
1 40105U 14045A   26115.20218808  .00000035  00000+0  00000+0 0  9994
2 40105  55.3192  90.5744 0031646 119.1673 241.1386  2.00554849 85010
GSAT0201 (GALILEO 5)    
1 40128U 14050A   26115.59631177 -.00000057  00000+0  00000+0 0  9990
2 40128  48.9339 275.5890 1666211 177.3352 183.6762  1.85519949 77345
GSAT0202 (GALILEO 6)    
1 40129U 14050B   26112.61814241 -.00000026  00000+0  00000+0 0  9992
2 40129  48.9541 274.7956 1666851 177.9520 182.8300  1.85520499 79453
IRNSS-1C                
1 40269U 14061A   26115.51223897 -.00000170  00000+0  00000+0 0  9992
2 40269   6.3834  89.9311 0021553 357.8322  33.1859  1.00269848 42164
GPS BIIF-8  (PRN 03)    
1 40294U 14068A   26115.07628713 -.00000092  00000+0  00000+0 0  9997
2 40294  56.9533  33.0012 0065217  68.8236 291.8757  2.00572899 84143
COSMOS 2501 (702K)      
1 40315U 14075A   26113.39738229 -.00000007  00000+0  00000+0 0  9992
2 40315  63.6140 192.2680 0021796 209.7934 150.1349  2.13101329 88687
GPS BIIF-9  (PRN 26)    
1 40534U 15013A   26115.21065405 -.00000039  00000+0  00000+0 0  9995
2 40534  53.1745 206.3686 0108873  39.9848 320.8380  2.00554468 80761
GSAT0203 (GALILEO 7)    
1 40544U 15017A   26111.90090206 -.00000083  00000+0  00000+0 0  9998
2 40544  56.8042 343.1309 0002546 315.4442  44.5780  1.70475713 68240
GSAT0204 (GALILEO 8)    
1 40545U 15017B   26115.08949468 -.00000090  00000+0  00000+0 0  9993
2 40545  56.8095 343.0621 0001553 296.0698  63.9535  1.70475480 31344
BEIDOU-3S IGSO-1S (C31) 
1 40549U 15019A   26112.98991377 -.00000171  00000+0  00000+0 0  9991
2 40549  49.2998 296.1212 0037208 189.9963 176.4804  1.00261100 40525
GPS BIIF-10 (PRN 08)    
1 40730U 15033A   26115.37018510 -.00000039  00000+0  00000+0 0  9997
2 40730  54.0255 269.2625 0115006  29.8840 330.7367  2.00558940 78932
BEIDOU-3S M2S (C58)     
1 40748U 15037A   26114.62838980 -.00000045  00000+0  00000+0 0  9995
2 40748  54.9188 303.8896 0007460 271.5693  88.3464  1.86231783 73122
BEIDOU-3S M1S (C57)     
1 40749U 15037B   26115.37922549 -.00000049  00000+0  00000+0 0  9998
2 40749  54.9149 303.8513 0004457  51.4305 308.6107  1.86254812 73146
GSAT0205 (GALILEO 9)    
1 40889U 15045A   26115.63255191 -.00000038  00000+0  00000+0 0  9991
2 40889  54.9613 223.1764 0005159 266.9978  92.9342  1.67410754 66085
